STARLINK-31010          
1 58519U 23191M   26067.33336806 -.00005558  00000+0 -19262-3 0  9994
2 58519  42.9996 111.1992 0001070 282.2634  18.6268 15.27575293  5796
STARLINK-36554          
1 67502U 26012K   26067.71268370  .00032833  00000+0  11969-2 0  9992
2 67502  42.9934 319.8184 0000695 339.2059  20.8765 15.27591469  7619
